DUBAISAT-1              
1 35682U 09041B   26192.84737047  .00000444  00000+0  73279-4 0  9991
2 35682  98.0079 325.8393 0010183 359.6236   0.4964 14.75163641908737
OCEANSAT-2              
1 35931U 09051A   26193.29115801 -.00000138  00000+0 -68878-4 0  9998
2 35931  98.2319 177.6363 0017153 161.8864 198.2917 13.99656408882847
WORLDVIEW-2 (WV-2)      
1 35946U 09055A   26193.21471985  .00000032  00000+0  24975-4 0  9999
2 35946  98.4757 266.3235 0005187 137.0579 223.1014 14.37906431879240
SMOS                    
1 36036U 09059A   26192.99952472  .00000159  00000+0  64693-4 0  9994
2 36036  98.4426  19.9708 0001132  95.5733 264.5585 14.39734900877025
YAOGAN-7                
1 36110U 09069A   26193.13735878  .00000221  00000+0  37818-4 0  9993
2 36110  98.0039  78.8467 0023689 321.6496  38.3029 14.78033793893315
TANDEM-X                
1 36605U 10030A   26188.47915494  .00000386  00000+0  21566-4 0  9992
2 36605  97.4457 195.8973 0001887  94.3019 265.8431 15.19154052889726
CARTOSAT-2B             
1 36795U 10035A   26193.31021802  .00000636  00000+0  93935-4 0  9994
2 36795  97.9947 243.6974 0012555 107.5778 252.6805 14.78616212863569
YAOGAN-10               
1 36834U 10038A   26193.28152394  .00000638  00000+0  80260-4 0  9997
2 36834  97.8976 216.4856 0001613  81.8124  10.1700 14.85422178860936
COSMO-SKYMED 4          
1 37216U 10060A   26193.28761243  .00000394  00000+0  56029-4 0  9991
2 37216  97.8895  16.5245 0001539  84.5251 275.6137 14.82148383848286
RESOURCESAT-2           
1 37387U 11015A   26193.28606389  .00000011  00000+0  25341-4 0  9999
2 37387  98.7633 260.5531 0011424 179.2535 180.8662 14.21605420789743
HAIYANG-2A              
1 37781U 11043A   26193.30694983  .00000148  00000+0  20538-3 0  9991
2 37781  99.3400 195.4099 0002871  38.1450 321.9902 13.73481734750109
RASAT                   
1 37791U 11044D   26193.32184590  .00000416  00000+0  80510-4 0  9998
2 37791  98.0578 284.3354 0021844 111.2926 289.7158 14.68191685796872
SRMSAT                  
1 37841U 11058D   26193.23869166  .00000350  00000+0  45879-4 0  9994
2 37841  19.9714 267.8422 0011853 118.8974 271.3920 14.11580711761369
PLEIADES 1A             
1 38012U 11076F   26193.29850978 -.00000043  00000+0  58112-6 0  9998
2 38012  98.1973 268.0629 0001703  81.7486 318.2939 14.58545392775652
ZIYUAN 1-02C (ZY 1-02C) 
1 38038U 11079A   26193.34330486  .00000124  00000+0  54991-4 0  9990
2 38038  98.4067 260.1250 0005443 224.4482 268.2410 14.38233843762823
ARIRANG-3 (KOMPSAT-3)   
1 38338U 12025B   26193.21497279  .00000211  00000+0  51116-4 0  9998
2 38338  98.1183 150.2452 0006390  46.7106 313.4628 14.62227554755000
EXACTVIEW-1 (ADS-1B)    
1 38709U 12039C   26192.81623572  .00000040  00000+0  36711-4 0  9991
2 38709  98.9800 310.7657 0011949 100.3654 259.8872 14.24991670726217
SPOT 6                  
1 38755U 12047A   26193.30626188  .00000102  00000+0  31711-4 0  9996
2 38755  98.2114 260.3197 0001135  82.7193 277.4136 14.58537881736717
PLEIADES 1B             
1 39019U 12068A   26193.25624554  .00000021  00000+0  14273-4 0  9996
2 39019  98.1944 267.9618 0001615  79.6371 280.5011 14.58533209724509
GOKTURK 2               
1 39030U 12073A   26193.30702841  .00000223  00000+0  39554-4 0  9990
2 39030  97.6817  29.4787 0000903  85.6602 274.4711 14.75566058728214
LANDSAT 8               
1 39084U 13008A   26193.29527149  .00000148  00000+0  42897-4 0  9992
2 39084  98.2291 263.1310 0001326  94.2959 265.8391 14.57110639701552
SARAL                   
1 39086U 13009A   26193.31934166  .00000051  00000+0  34702-4 0  9998
2 39086  98.5554  19.5687 0001527 174.1400 185.9802 14.32895331699200
GAOFEN-1                
1 39150U 13018A   26193.27258968 -.00000204  00000+0 -21982-4 0  9992
2 39150  97.9091 264.8295 0016816 180.4959 179.6237 14.76515160711942
VNREDSAT 1              
1 39160U 13021B   26193.29410483  .00000034  00000+0  14841-4 0  9996
2 39160  97.9073 245.7452 0001639  80.9854 279.1535 14.64881203703962
ARIRANG-5 (KOMPSAT-5)   
1 39227U 13042A   26193.30617084  .00000568  00000+0  44870-4 0  9998
2 39227  97.6216  19.6543 0005599  66.2751 293.9062 15.04521984707632
SKYSAT-A                
1 39418U 13066C   26192.92535079  .00001480  00000+0  86826-4 0  9997
2 39418  97.3805 241.5341 0020184 225.2191 134.7400 15.13105178692228
DUBAISAT-2              
1 39419U 13066D   26193.24769569  .00003273  00000+0  20309-3 0  9992
2 39419  97.4570 182.7393 0009745 314.3486  45.6944 15.10364403690179
GPM-CORE                
1 39574U 14009C   26193.19803970  .00003371  00000+0  76419-4 0  9994
2 39574  64.9696 224.3316 0011009 261.0478  98.9417 15.45020837701674
SENTINEL-1A             
1 39634U 14016A   26193.25890365  .00000225  00000+0  57381-4 0  9992
2 39634  98.1785 200.4258 0001461  85.7228 274.4139 14.59200746653675
KAZEOSAT 1              
1 39731U 14024A   26193.34730410  .00000004  00000+0  14344-4 0  9990
2 39731  98.3202 265.1674 0001260  81.9579 278.1754 14.42036368642180
