OBJECT_NAME,OBJECT_ID,EPOCH,MEAN_MOTION,ECCENTRICITY,INCLINATION,RA_OF_ASC_NODE,ARG_OF_PERICENTER,MEAN_ANOMALY,EPHEMERIS_TYPE,CLASSIFICATION_TYPE,NORAD_CAT_ID,ELEMENT_SET_NO,REV_AT_EPOCH,BSTAR,MEAN_MOTION_DOT,MEAN_MOTION_DDOT
DUBAISAT-1,2009-041B,2026-07-11T20:20:12.808608,14.75163641,.00101832,98.0079,325.8393,359.6236,0.4964,0,U,35682,999,90873,.73279038E-4,.444E-5,0
OCEANSAT-2,2009-051A,2026-07-12T06:59:16.052064,13.99656408,.00171535,98.2319,177.6363,161.8864,198.2917,0,U,35931,999,88284,-.6887792E-4,-.138E-5,0
WORLDVIEW-2 (WV-2),2009-055A,2026-07-12T05:09:11.795040,14.37906431,.0005187,98.4757,266.3235,137.0579,223.1014,0,U,35946,999,87924,.24974886E-4,.32E-6,0
SMOS,2009-059A,2026-07-11T23:59:18.935808,14.39734900,.00011326,98.4426,19.9708,95.5733,264.5585,0,U,36036,999,87702,.64692926E-4,.159E-5,0
YAOGAN-7,2009-069A,2026-07-12T03:17:47.798592,14.78033793,.00236896,98.0039,78.8467,321.6496,38.3029,0,U,36110,999,89331,.37818476E-4,.221E-5,0
TANDEM-X,2010-030A,2026-07-07T11:29:58.986816,15.19154052,.0001887,97.4457,195.8973,94.3019,265.8431,0,U,36605,999,88972,.21566E-4,.386E-5,0
CARTOSAT-2B,2010-035A,2026-07-12T07:26:42.836928,14.78616212,.00125552,97.9947,243.6974,107.5778,252.6805,0,U,36795,999,86356,.93935037E-4,.636E-5,0
YAOGAN-10,2010-038A,2026-07-12T06:45:23.668416,14.85422178,.00016137,97.8976,216.4856,81.8124,10.1700,0,U,36834,999,86093,.80260431E-4,.638E-5,0
COSMO-SKYMED 4,2010-060A,2026-07-12T06:54:09.713952,14.82148383,.00015394,97.8895,16.5245,84.5251,275.6137,0,U,37216,999,84828,.56028625E-4,.394E-5,0
RESOURCESAT-2,2011-015A,2026-07-12T06:51:55.920096,14.21605420,.0011424,98.7633,260.5531,179.2535,180.8662,0,U,37387,999,78974,.25341155E-4,.11E-6,0
HAIYANG-2A,2011-043A,2026-07-12T07:22:00.465312,13.73481734,.00028716,99.3400,195.4099,38.1450,321.9902,0,U,37781,999,75010,.20538257E-3,.148E-5,0
RASAT,2011-044D,2026-07-12T07:43:27.485760,14.68191685,.00218444,98.0578,284.3354,111.2926,289.7158,0,U,37791,999,79687,.80510304E-4,.416E-5,0
SRMSAT,2011-058D,2026-07-12T05:43:42.959424,14.11580711,.00118539,19.9714,267.8422,118.8974,271.3920,0,U,37841,999,76136,.45878902E-4,.35E-5,0
PLEIADES 1A,2011-076F,2026-07-12T07:09:51.244992,14.58545392,.00017034,98.1973,268.0629,81.7486,318.2939,0,U,38012,999,77565,.58112E-6,-.43E-6,0
ZIYUAN 1-02C (ZY 1-02C),2011-079A,2026-07-12T08:14:21.539904,14.38233843,.00054435,98.4067,260.1250,224.4482,268.2410,0,U,38038,999,76282,.54990648E-4,.124E-5,0
ARIRANG-3 (KOMPSAT-3),2012-025B,2026-07-12T05:09:33.649056,14.62227554,.00063906,98.1183,150.2452,46.7106,313.4628,0,U,38338,999,75500,.5111602E-4,.211E-5,0
EXACTVIEW-1 (ADS-1B),2012-039C,2026-07-11T19:35:22.766208,14.24991670,.00119494,98.9800,310.7657,100.3654,259.8872,0,U,38709,999,72621,.36710963E-4,.4E-6,0
SPOT 6,2012-047A,2026-07-12T07:21:01.026432,14.58537881,.00011359,98.2114,260.3197,82.7193,277.4136,0,U,38755,999,73671,.31711007E-4,.102E-5,0
PLEIADES 1B,2012-068A,2026-07-12T06:08:59.614656,14.58533209,.00016152,98.1944,267.9618,79.6371,280.5011,0,U,39019,999,72450,.14272666E-4,.21E-6,0
GOKTURK 2,2012-073A,2026-07-12T07:22:07.254624,14.75566058,.00009036,97.6817,29.4787,85.6602,274.4711,0,U,39030,999,72821,.3955355E-4,.223E-5,0
LANDSAT 8,2013-008A,2026-07-12T07:05:11.456736,14.57110639,.00013263,98.2291,263.1310,94.2959,265.8391,0,U,39084,999,70155,.42897077E-4,.148E-5,0
SARAL,2013-009A,2026-07-12T07:39:51.119424,14.32895331,.00015279,98.5554,19.5687,174.1400,185.9802,0,U,39086,999,69920,.347018E-4,.51E-6,0
GAOFEN-1,2013-018A,2026-07-12T06:32:31.748352,14.76515160,.0016816,97.9091,264.8295,180.4959,179.6237,0,U,39150,999,71194,-.21981746E-4,-.204E-5,0
VNREDSAT 1,2013-021B,2026-07-12T07:03:30.657312,14.64881203,.00016393,97.9073,245.7452,80.9854,279.1535,0,U,39160,999,70396,.14840668E-4,.34E-6,0
ARIRANG-5 (KOMPSAT-5),2013-042A,2026-07-12T07:20:53.160576,15.04521984,.00055996,97.6216,19.6543,66.2751,293.9062,0,U,39227,999,70763,.4486992E-4,.568E-5,0
SKYSAT-A,2013-066C,2026-07-11T22:12:30.308256,15.13105178,.0020184,97.3805,241.5341,225.2191,134.7400,0,U,39418,999,69222,.86826E-4,.148E-4,0
DUBAISAT-2,2013-066D,2026-07-12T05:56:40.907616,15.10364403,.00097451,97.4570,182.7393,314.3486,45.6944,0,U,39419,999,69017,.20308598E-3,.3273E-4,0
GPM-CORE,2014-009C,2026-07-12T04:45:10.630080,15.45020837,.00110091,64.9696,224.3316,261.0478,98.9417,0,U,39574,999,70167,.76419202E-4,.3371E-4,0
SENTINEL-1A,2014-016A,2026-07-12T06:12:49.275360,14.59200746,.00014616,98.1785,200.4258,85.7228,274.4139,0,U,39634,999,65367,.5738139E-4,.225E-5,0
KAZEOSAT 1,2014-024A,2026-07-12T08:20:07.074240,14.42036368,.00012603,98.3202,265.1674,81.9579,278.1754,0,U,39731,999,64218,.14344413E-4,.4E-7,0
